SKYSAT-C1               
1 41601U 16040C   26183.00064639  .00010682  00000+0  30140-3 0  9998
2 41601  96.9550 213.9188 0001877  25.1186 335.0150 15.36552453560148
LAPAN-A3                
1 41603U 16040E   26183.59428427  .00004152  00000+0  13164-3 0  9995
2 41603  97.1491 179.2348 0008985 330.0523  30.0204 15.33205648557178
GAOFEN-3                
1 41727U 16049A   26183.62464510 -.00000030  00000+0  39446-5 0  9993
2 41727  98.4006 191.1774 0001670  93.0416 267.0965 14.42217175520878
SKYSAT-C4               
1 41771U 16058B   26183.51505950  .00016943  00000+0  31364-3 0  9992
2 41771  96.9163 204.6492 0002681 136.9395 223.2067 15.49073522547844
SKYSAT-C5               
1 41772U 16058C   26183.55806026  .00008161  00000+0  24494-3 0  9994
2 41772  97.0457 223.5135 0001929 191.1565 168.9636 15.34689761546100
SKYSAT-C2               
1 41773U 16058D   26183.50700312  .00012396  00000+0  28849-3 0  9994
2 41773  97.0157 205.0277 0003095  35.1198 325.0254 15.42422166547415
SKYSAT-C3               
1 41774U 16058E   26183.54463808  .00023154  00000+0  36953-3 0  9994
2 41774  96.8997 213.8059 0001543 133.6553 226.4830 15.53205210548499
ALSAT-1B                
1 41785U 16059C   26183.59985168  .00000809  00000+0  13547-3 0  9996
2 41785  97.7743 191.6984 0009365 167.3967 192.7477 14.72287803522844
PATHFINDER 1            
1 41787U 16059E   26183.27172208  .00000713  00000+0  13263-3 0  9995
2 41787  97.8169 181.8673 0029022 155.4643 204.7951 14.67680837521923
SCATSAT 1               
1 41790U 16059H   26183.63285098  .00001519  00000+0  20536-3 0  9997
2 41790  98.1185 247.5581 0054286 196.9452 162.9947 14.79561788103871
GOKTURK 1A              
1 41875U 16073A   26183.63658321  .00000394  00000+0  86434-4 0  9990
2 41875  98.1236  78.0680 0001392  79.0701 281.0657 14.62785508511084
RESOURCESAT-2A          
1 41877U 16074A   26183.62528571  .00000345  00000+0  17736-3 0  9999
2 41877  98.7527 257.0036 0003036  53.8148 306.3310 14.21606130496493
CARTOSAT-2D             
1 41948U 17008A   26183.43877270  .00006503  00000+0  31092-3 0  9991
2 41948  97.4098 242.4603 0005289 175.3093 184.8193 15.19326746519898
SENTINEL-2B             
1 42063U 17013A   26183.59209093  .00000509  00000+0  21069-3 0  9998
2 42063  98.5693 258.1493 0001211  88.4189 271.7133 14.30822654486841
CARTOSAT-2E             
1 42767U 17036C   26183.58832089  .00006127  00000+0  29357-3 0  9990
2 42767  97.4263 243.1373 0002422 239.2698 120.8298 15.19287276500486
FORMOSAT-5              
1 42920U 17049A   26183.56961650  .00000213  00000+0  64997-4 0  9990
2 42920  98.2252 258.5375 0012153  41.2886 318.9226 14.50904557468901
SENTINEL-5P             
1 42969U 17064A   26183.56781615  .00000059  00000+0  49212-4 0  9992
2 42969  98.7927 125.5898 0001053  91.5856 268.5440 14.19521525451740
SKYSAT-C11              
1 42987U 17068A   26183.66174772  .00029708  00000+0  38676-3 0  9990
2 42987  97.4371 333.1753 0000534 154.6914 205.4369 15.58712773485653
SKYSAT-C10              
1 42988U 17068B   26183.61409412  .00009932  00000+0  29580-3 0  9999
2 42988  97.4529 320.6149 0001248 108.5507 251.5871 15.34898581484721
SKYSAT-C9               
1 42989U 17068C   26183.62118491  .00013404  00000+0  31649-3 0  9993
2 42989  97.4450 321.7054 0009394  84.6426 275.5893 15.41944090485137
SKYSAT-C8               
1 42990U 17068D   26183.36653606  .00011340  00000+0  31275-3 0  9990
2 42990  97.4546 320.2228 0001282  95.2772 264.8619 15.37273223484642
SKYSAT-C7               
1 42991U 17068E   26183.36062493  .00011130  00000+0  30726-3 0  9996
2 42991  97.4558 321.2073 0006711  62.0954 298.0969 15.37226127484706
SKYSAT-C6               
1 42992U 17068F   26183.34390945  .00010816  00000+0  32866-3 0  9998
2 42992  97.4592 321.1003 0005226 110.0082 250.1724 15.34226054484640
CARTOSAT-2F             
1 43111U 18004A   26183.62072253  .00007194  00000+0  34507-3 0  9992
2 43111  97.4781 243.1048 0001633 158.9368 201.1934 15.19192174469675
GAOFEN-1 02             
1 43259U 18031A   26183.61484917  .00001423  00000+0  21187-3 0  9997
2 43259  98.0521 246.0983 0002303 348.3499  11.7657 14.76459393444976
GAOFEN-1 03             
1 43260U 18031B   26183.59286806  .00000891  00000+0  13543-3 0  9998
2 43260  98.0510 245.9332 0003324  46.9443 313.2045 14.76448143444967
GAOFEN-1 04             
1 43262U 18031D   26183.63641299  .00000905  00000+0  13749-3 0  9990
2 43262  98.0523 246.1692 0001828  60.9921 299.1472 14.76456804444968
SENTINEL-3B             
1 43437U 18039A   26183.47802154  .00000140  00000+0  76068-4 0  9998
2 43437  98.6244 250.7906 0000853 115.3560 244.7708 14.26739164426302
GAOFEN-5 01             
1 43461U 18043A   26183.40682494  .00000372  00000+0  86504-4 0  9999
2 43461  98.4579 155.3133 0002713  56.0930 304.0528 14.60616168433910
GAOFEN-6                
1 43484U 18048A   26183.65823170 -.00000003  00000+0  71139-5 0  9995
2 43484  98.0968 246.3304 0011981 117.9379 242.3045 14.76369626435679
