OBJECT_NAME,OBJECT_ID,EPOCH,MEAN_MOTION,ECCENTRICITY,INCLINATION,RA_OF_ASC_NODE,ARG_OF_PERICENTER,MEAN_ANOMALY,EPHEMERIS_TYPE,CLASSIFICATION_TYPE,NORAD_CAT_ID,ELEMENT_SET_NO,REV_AT_EPOCH,BSTAR,MEAN_MOTION_DOT,MEAN_MOTION_DDOT
SKYSAT-C1,2016-040C,2026-07-02T00:00:55.848096,15.36552453,.00018777,96.9550,213.9188,25.1186,335.0150,0,U,41601,999,56014,.30140118E-3,.10682E-3,0
LAPAN-A3,2016-040E,2026-07-02T14:15:46.160928,15.33205648,.00089857,97.1491,179.2348,330.0523,30.0204,0,U,41603,999,55717,.13164347E-3,.4152E-4,0
GAOFEN-3,2016-049A,2026-07-02T14:59:29.336640,14.42217175,.00016705,98.4006,191.1774,93.0416,267.0965,0,U,41727,999,52087,.3944552E-5,-.3E-6,0
SKYSAT-C4,2016-058B,2026-07-02T12:21:41.140800,15.49073522,.00026818,96.9163,204.6492,136.9395,223.2067,0,U,41771,999,54784,.31363963E-3,.16943E-3,0
SKYSAT-C5,2016-058C,2026-07-02T13:23:36.406464,15.34689761,.00019291,97.0457,223.5135,191.1565,168.9636,0,U,41772,999,54610,.24494431E-3,.8161E-4,0
SKYSAT-C2,2016-058D,2026-07-02T12:10:05.069568,15.42422166,.00030955,97.0157,205.0277,35.1198,325.0254,0,U,41773,999,54741,.28848553E-3,.12396E-3,0
SKYSAT-C3,2016-058E,2026-07-02T13:04:16.730112,15.53205210,.00015438,96.8997,213.8059,133.6553,226.4830,0,U,41774,999,54849,.36952701E-3,.23154E-3,0
ALSAT-1B,2016-059C,2026-07-02T14:23:47.185152,14.72287803,.00093652,97.7743,191.6984,167.3967,192.7477,0,U,41785,999,52284,.13546709E-3,.809E-5,0
PATHFINDER 1,2016-059E,2026-07-02T06:31:16.787712,14.67680837,.0029022,97.8169,181.8673,155.4643,204.7951,0,U,41787,999,52192,.13263089E-3,.713E-5,0
SCATSAT 1,2016-059H,2026-07-02T15:11:18.324672,14.79561788,.00542861,98.1185,247.5581,196.9452,162.9947,0,U,41790,999,10387,.2053603E-3,.1519E-4,0
GOKTURK 1A,2016-073A,2026-07-02T15:16:40.789344,14.62785508,.00013922,98.1236,78.0680,79.0701,281.0657,0,U,41875,999,51108,.86434436E-4,.394E-5,0
RESOURCESAT-2A,2016-074A,2026-07-02T15:00:24.685344,14.21606130,.00030365,98.7527,257.0036,53.8148,306.3310,0,U,41877,999,49649,.17736495E-3,.345E-5,0
CARTOSAT-2D,2017-008A,2026-07-02T10:31:49.961280,15.19326746,.00052892,97.4098,242.4603,175.3093,184.8193,0,U,41948,999,51989,.31091661E-3,.6503E-4,0
SENTINEL-2B,2017-013A,2026-07-02T14:12:36.656352,14.30822654,.00012119,98.5693,258.1493,88.4189,271.7133,0,U,42063,999,48684,.21069381E-3,.509E-5,0
CARTOSAT-2E,2017-036C,2026-07-02T14:07:10.924896,15.19287276,.00024225,97.4263,243.1373,239.2698,120.8298,0,U,42767,999,50048,.29357125E-3,.6127E-4,0
FORMOSAT-5,2017-049A,2026-07-02T13:40:14.865600,14.50904557,.00121534,98.2252,258.5375,41.2886,318.9226,0,U,42920,999,46890,.64997068E-4,.213E-5,0
SENTINEL-5P,2017-064A,2026-07-02T13:37:39.315360,14.19521525,.00010536,98.7927,125.5898,91.5856,268.5440,0,U,42969,999,45174,.49211693E-4,.59E-6,0
SKYSAT-C11,2017-068A,2026-07-02T15:52:55.003008,15.58712773,.00005348,97.4371,333.1753,154.6914,205.4369,0,U,42987,999,48565,.38676277E-3,.29708E-3,0
SKYSAT-C10,2017-068B,2026-07-02T14:44:17.731968,15.34898581,.0001248,97.4529,320.6149,108.5507,251.5871,0,U,42988,999,48472,.29579615E-3,.9932E-4,0
SKYSAT-C9,2017-068C,2026-07-02T14:54:30.376224,15.41944090,.00093946,97.4450,321.7054,84.6426,275.5893,0,U,42989,999,48513,.31648704E-3,.13404E-3,0
SKYSAT-C8,2017-068D,2026-07-02T08:47:48.715584,15.37273223,.00012829,97.4546,320.2228,95.2772,264.8619,0,U,42990,999,48464,.31275166E-3,.1134E-3,0
SKYSAT-C7,2017-068E,2026-07-02T08:39:17.993952,15.37226127,.00067115,97.4558,321.2073,62.0954,298.0969,0,U,42991,999,48470,.30725708E-3,.1113E-3,0
SKYSAT-C6,2017-068F,2026-07-02T08:15:13.776480,15.34226054,.00052262,97.4592,321.1003,110.0082,250.1724,0,U,42992,999,48464,.32866358E-3,.10816E-3,0
CARTOSAT-2F,2018-004A,2026-07-02T14:53:50.426592,15.19192174,.00016333,97.4781,243.1048,158.9368,201.1934,0,U,43111,999,46967,.34507435E-3,.7194E-4,0
GAOFEN-1 02,2018-031A,2026-07-02T14:45:22.968288,14.76459393,.00023032,98.0521,246.0983,348.3499,11.7657,0,U,43259,999,44497,.21187123E-3,.1423E-4,0
GAOFEN-1 03,2018-031B,2026-07-02T14:13:43.800384,14.76448143,.0003324,98.0510,245.9332,46.9443,313.2045,0,U,43260,999,44496,.13543421E-3,.891E-5,0
GAOFEN-1 04,2018-031D,2026-07-02T15:16:26.082336,14.76456804,.00018285,98.0523,246.1692,60.9921,299.1472,0,U,43262,999,44496,.13748968E-3,.905E-5,0
SENTINEL-3B,2018-039A,2026-07-02T11:28:21.061056,14.26739164,.00008533,98.6244,250.7906,115.3560,244.7708,0,U,43437,999,42630,.76067813E-4,.14E-5,0
GAOFEN-5 01,2018-043A,2026-07-02T09:45:49.674816,14.60616168,.00027132,98.4579,155.3133,56.0930,304.0528,0,U,43461,999,43391,.8650389E-4,.372E-5,0
GAOFEN-6,2018-048A,2026-07-02T15:47:51.218880,14.76369626,.0011981,98.0968,246.3304,117.9379,242.3045,0,U,43484,999,43567,.71139E-5,-.3E-7,0
